[{"OBJECT_NAME":"BEIJING 1","OBJECT_ID":"2005-043A","EPOCH":"2026-03-06T20:51:33.776352","MEAN_MOTION":14.63457555,"ECCENTRICITY":0.0013448,"INCLINATION":98.2729,"RA_OF_ASC_NODE":198.6133,"ARG_OF_PERICENTER":239.7768,"MEAN_ANOMALY":120.2103,"EPHEMERIS_TYPE":0,"CLASSIFICATION_TYPE":"U","NORAD_CAT_ID":28890,"ELEMENT_SET_NO":999,"REV_AT_EPOCH":8568,"BSTAR":0.0001251,"MEAN_MOTION_DOT":5.99e-6,"MEAN_MOTION_DDOT":0},{"OBJECT_NAME":"HUANJING 1A (HJ-1A)","OBJECT_ID":"2008-041A","EPOCH":"2026-03-06T20:53:05.879616","MEAN_MOTION":14.83710597,"ECCENTRICITY":0.0020602,"INCLINATION":97.6634,"RA_OF_ASC_NODE":55.7188,"ARG_OF_PERICENTER":112.2186,"MEAN_ANOMALY":248.1216,"EPHEMERIS_TYPE":0,"CLASSIFICATION_TYPE":"U","NORAD_CAT_ID":33320,"ELEMENT_SET_NO":999,"REV_AT_EPOCH":94323,"BSTAR":0.00031871,"MEAN_MOTION_DOT":2.593e-5,"MEAN_MOTION_DDOT":0},{"OBJECT_NAME":"HUANJING 1B (HJ-1B)","OBJECT_ID":"2008-041B","EPOCH":"2026-03-06T20:41:45.005280","MEAN_MOTION":14.83092767,"ECCENTRICITY":0.0036931,"INCLINATION":97.6477,"RA_OF_ASC_NODE":59.1815,"ARG_OF_PERICENTER":156.9769,"MEAN_ANOMALY":203.311,"EPHEMERIS_TYPE":0,"CLASSIFICATION_TYPE":"U","NORAD_CAT_ID":33321,"ELEMENT_SET_NO":999,"REV_AT_EPOCH":94324,"BSTAR":0.00016222,"MEAN_MOTION_DOT":1.285e-5,"MEAN_MOTION_DDOT":0},{"OBJECT_NAME":"YAOGAN-4","OBJECT_ID":"2008-061A","EPOCH":"2026-03-06T19:38:50.298144","MEAN_MOTION":14.82968178,"ECCENTRICITY":0.0015495,"INCLINATION":97.9251,"RA_OF_ASC_NODE":0.1405,"ARG_OF_PERICENTER":47.9855,"MEAN_ANOMALY":312.2675,"EPHEMERIS_TYPE":0,"CLASSIFICATION_TYPE":"U","NORAD_CAT_ID":33446,"ELEMENT_SET_NO":999,"REV_AT_EPOCH":93049,"BSTAR":0.00025032,"MEAN_MOTION_DOT":1.983e-5,"MEAN_MOTION_DDOT":0},{"OBJECT_NAME":"DEIMOS-1","OBJECT_ID":"2009-041A","EPOCH":"2026-03-06T19:57:16.426368","MEAN_MOTION":14.75111819,"ECCENTRICITY":0.0002135,"INCLINATION":97.7252,"RA_OF_ASC_NODE":227.5731,"ARG_OF_PERICENTER":122.115,"MEAN_ANOMALY":238.0267,"EPHEMERIS_TYPE":0,"CLASSIFICATION_TYPE":"U","NORAD_CAT_ID":35681,"ELEMENT_SET_NO":999,"REV_AT_EPOCH":89179,"BSTAR":0.00020186,"MEAN_MOTION_DOT":1.314e-5,"MEAN_MOTION_DDOT":0},{"OBJECT_NAME":"UK-DMC 2","OBJECT_ID":"2009-041C","EPOCH":"2026-03-06T20:33:00.354240","MEAN_MOTION":14.75843317,"ECCENTRICITY":0.0001092,"INCLINATION":97.8651,"RA_OF_ASC_NODE":203.4359,"ARG_OF_PERICENTER":90.5935,"MEAN_ANOMALY":269.54,"EPHEMERIS_TYPE":0,"CLASSIFICATION_TYPE":"U","NORAD_CAT_ID":35683,"ELEMENT_SET_NO":999,"REV_AT_EPOCH":89147,"BSTAR":0.00016902,"MEAN_MOTION_DOT":1.11e-5,"MEAN_MOTION_DDOT":0},{"OBJECT_NAME":"DMC3-FM1","OBJECT_ID":"2015-032A","EPOCH":"2026-03-06T21:35:16.273824","MEAN_MOTION":14.85606623,"ECCENTRICITY":0.0006615,"INCLINATION":97.6614,"RA_OF_ASC_NODE":295.0002,"ARG_OF_PERICENTER":40.7457,"MEAN_ANOMALY":319.4252,"EPHEMERIS_TYPE":0,"CLASSIFICATION_TYPE":"U","NORAD_CAT_ID":40715,"ELEMENT_SET_NO":999,"REV_AT_EPOCH":57472,"BSTAR":7.6394e-5,"MEAN_MOTION_DOT":6.1e-6,"MEAN_MOTION_DDOT":0},{"OBJECT_NAME":"DMC3-FM2","OBJECT_ID":"2015-032B","EPOCH":"2026-03-06T20:30:27.224928","MEAN_MOTION":14.85611823,"ECCENTRICITY":0.0007201,"INCLINATION":97.6669,"RA_OF_ASC_NODE":296.4602,"ARG_OF_PERICENTER":45.3102,"MEAN_ANOMALY":314.8699,"EPHEMERIS_TYPE":0,"CLASSIFICATION_TYPE":"U","NORAD_CAT_ID":40716,"ELEMENT_SET_NO":999,"REV_AT_EPOCH":57471,"BSTAR":0.00014726,"MEAN_MOTION_DOT":1.223e-5,"MEAN_MOTION_DDOT":0},{"OBJECT_NAME":"DMC3-FM3","OBJECT_ID":"2015-032C","EPOCH":"2026-03-06T19:26:41.273952","MEAN_MOTION":14.85612929,"ECCENTRICITY":0.0006519,"INCLINATION":97.6725,"RA_OF_ASC_NODE":298.1043,"ARG_OF_PERICENTER":46.6316,"MEAN_ANOMALY":313.5441,"EPHEMERIS_TYPE":0,"CLASSIFICATION_TYPE":"U","NORAD_CAT_ID":40717,"ELEMENT_SET_NO":999,"REV_AT_EPOCH":57471,"BSTAR":0.00017955,"MEAN_MOTION_DOT":1.503e-5,"MEAN_MOTION_DDOT":0}]
